     2.10           N: GPS NAV DATA                         RINEX VERSION / TYPE
teqc  2013Mar15     gpsops              20140531 00:05:31UTCPGM / RUN BY / DATE
Linux 2.4.21-27.ELsmp|Opteron|gcc -static|Linux x86_64|=+   COMMENT
MADR                                    MARKER NAME         COMMENT
13407S012                               MARKER NUMBER       COMMENT
4849202.3940 -360328.9929 4114913.1862                      COMMENT
                                                            COMMENT
This data is provided as a public service by NASA/JPL.      COMMENT
No warranty is expressed or implied regarding suitability   COMMENT
for use.  For further information, contact:                 COMMENT
Dave Stowers, NASA/JPL m/s 238-600                          COMMENT
4800 Oak Grove Drive, Pasadena CA 91109 USA                 COMMENT
                                                            END OF HEADER
14 14  5 30 14  0  0.0 1.681931316853D-04-3.410605131648D-12 0.000000000000D+00
    8.000000000000D+00 8.978125000000D+01 4.100885104039D-09-1.983722598923D+00
    4.690140485764D-06 7.532378425822D-03 1.091696321964D-05 5.153671318054D+03
    4.824000000000D+05 9.126961231232D-08 4.665485614831D-01 1.862645149231D-08
    9.705249837926D-01 1.720000000000D+02-2.002886618027D+00-7.602816687832D-09
   -2.214377952016D-11 1.000000000000D+00 1.794000000000D+03 0.000000000000D+00
    2.000000000000D+00 0.000000000000D+00-9.313225746155D-09 8.000000000000D+00
    4.752000000000D+05 4.000000000000D+00
17 14  5 30 14  0  0.0-9.735533967614D-05-3.069544618484D-12 0.000000000000D+00
    9.000000000000D+01-5.034375000000D+01 3.925877814283D-09-1.907487782934D+00
   -2.669170498848D-06 9.289472480305D-03 1.122802495956D-05 5.153600809097D+03
    4.824000000000D+05 1.937150955200D-07-2.706849869516D+00-1.601874828339D-07
    9.690271370813D-01 1.690000000000D+02-2.098558710125D+00-7.462453698293D-09
    2.303667385565D-10 1.000000000000D+00 1.794000000000D+03 0.000000000000D+00
    2.800000000000D+00 0.000000000000D+00-1.024454832077D-08 9.000000000000D+01
    4.752000000000D+05 4.000000000000D+00
18 14  5 30 14  0  0.0 3.224359825253D-04 2.273736754432D-12 0.000000000000D+00
    8.100000000000D+01-1.890625000000D+01 5.708452065656D-09-3.184675286737D-01
   -8.903443813324D-07 1.533318753354D-02 6.698071956635D-06 5.153689043045D+03
    4.824000000000D+05-6.705522537231D-08-6.643515611835D-01 2.160668373108D-07
    9.257386816005D-01 2.368437500000D+02-2.036186021629D+00-8.747864383665D-09
   -3.217991185107D-10 1.000000000000D+00 1.794000000000D+03 0.000000000000D+00
    2.000000000000D+00 0.000000000000D+00-1.117587089539D-08 8.100000000000D+01
    4.752000000000D+05 4.000000000000D+00
22 14  5 30 14  0  0.0 2.382379025221D-04 2.955857780762D-12 0.000000000000D+00
    7.000000000000D+01-2.218750000000D+01 5.685951128402D-09-8.773386279668D-01
   -9.648501873016D-07 7.267138105817D-03 6.435438990593D-06 5.153718290329D+03
    4.824000000000D+05 9.313225746155D-09-6.624708922175D-01 1.452863216400D-07
    9.235170590953D-01 2.361562500000D+02-2.057332970599D+00-8.577500144453D-09
   -3.303709041314D-10 1.000000000000D+00 1.794000000000D+03 0.000000000000D+00
    2.000000000000D+00 0.000000000000D+00-1.722946763039D-08 7.000000000000D+01
    4.752000000000D+05 4.000000000000D+00
25 14  5 30 14  0  0.0 2.445792779326D-05 3.410605131648D-13 0.000000000000D+00
    5.200000000000D+01-1.011250000000D+02 4.358395830395D-09 3.945312520045D-01
   -5.159527063370D-06 3.638259600848D-03 3.091990947723D-06 5.153605699539D+03
    4.824000000000D+05-2.048909664154D-08 2.483937813500D+00 7.450580596924D-08
    9.763341627282D-01 3.247187500000D+02 6.842472850974D-01-8.239271770169D-09
   -4.196603376804D-10 1.000000000000D+00 1.794000000000D+03 0.000000000000D+00
    2.000000000000D+00 0.000000000000D+00 5.122274160385D-09 5.200000000000D+01
    4.752000000000D+05 4.000000000000D+00
15 14  5 30 14  0  0.0-1.824339851737D-04-2.160049916711D-12 0.000000000000D+00
    9.800000000000D+01 8.615625000000D+01 4.819843622976D-09-2.600664039730D+00
    4.276633262634D-06 6.266249692999D-03 1.117400825024D-05 5.153705863953D+03
    4.824000000000D+05-8.754432201385D-08 3.544999733868D-01-1.583248376846D-07
    9.371309659634D-01 1.541250000000D+02 2.756306262648D-01-7.977117993270D-09
   -1.617924535908D-10 1.000000000000D+00 1.794000000000D+03 0.000000000000D+00
    2.000000000000D+00 0.000000000000D+00-1.024454832077D-08 9.800000000000D+01
    4.752300000000D+05 4.000000000000D+00
24 14  5 30 14  0  0.0-2.925703302026D-05-6.821210263297D-13 0.000000000000D+00
    1.110000000000D+02 9.671875000000D+01 4.874488756308D-09 2.418842899247D+00
    4.980713129044D-06 2.073290990666D-03 2.494081854820D-06 5.153731670380D+03
    4.824000000000D+05-6.332993507385D-08 1.428159641633D+00-2.421438694000D-08
    9.565803272388D-01 3.292187500000D+02 3.490344075755D-01-8.408207378444D-09
    2.392956819114D-10 1.000000000000D+00 1.794000000000D+03 0.000000000000D+00
    2.800000000000D+00 0.000000000000D+00 2.793967723846D-09 1.110000000000D+02
    4.752300000000D+05 4.000000000000D+00
26 14  5 30 14  0  0.0 6.260769441724D-05-1.205080479849D-11 0.000000000000D+00
    4.800000000000D+01 1.056875000000D+02 3.898019511016D-09 3.137993152433D+00
    5.185604095459D-06 2.133940323256D-02 1.052580773830D-05 5.153700742722D+03
    4.824000000000D+05 3.166496753693D-07 4.896622180197D-01-2.570450305939D-07
    9.753436969685D-01 1.784687500000D+02 1.285330217014D+00-7.324590812893D-09
   -5.035924052165D-11 1.000000000000D+00 1.794000000000D+03 0.000000000000D+00
    2.000000000000D+00 0.000000000000D+00-6.053596735001D-09 4.800000000000D+01
    4.753200000000D+05 4.000000000000D+00
29 14  5 30 14  0  0.0 5.361917428672D-04 2.728484105319D-12 0.000000000000D+00
    8.000000000000D+01-6.840625000000D+01 3.983023051755D-09 8.211652186789D-01
   -3.626570105553D-06 1.555037219077D-03 1.144781708717D-05 5.153705293655D+03
    4.824000000000D+05 3.166496753693D-08-2.697791591951D+00-3.725290298462D-09
    9.697577593318D-01 1.630000000000D+02-8.517534108341D-01-7.670319499595D-09
    2.153661137202D-10 1.000000000000D+00 1.794000000000D+03 0.000000000000D+00
    2.000000000000D+00 0.000000000000D+00-9.778887033463D-09 8.000000000000D+01
    4.777800000000D+05 4.000000000000D+00
 2 14  5 30 14  0  0.0 4.982664249837D-04 2.160049916711D-12 0.000000000000D+00
    6.300000000000D+01 2.515625000000D+01 5.032352474823D-09 2.858185713650D+00
    1.290813088417D-06 1.354970200919D-02 6.418675184250D-06 5.153606834412D+03
    4.824000000000D+05-1.862645149231D-08-1.727212468486D+00-1.545995473862D-07
    9.390311049061D-01 2.427187500000D+02-2.420452253963D+00-8.039263439020D-09
    5.460941755858D-10 1.000000000000D+00 1.794000000000D+03 0.000000000000D+00
    2.000000000000D+00 0.000000000000D+00-2.048909664154D-08 6.300000000000D+01
    4.787700000000D+05 4.000000000000D+00
 4 14  5 30 14  0  0.0 6.993301212788D-06 2.273736754432D-13 0.000000000000D+00
    2.100000000000D+01 2.775000000000D+01 5.220931758478D-09-6.925931683712D-02
    1.588836312294D-06 1.057532348204D-02 6.251037120819D-06 5.153730587006D+03
    4.824000000000D+05-8.754432201385D-08-1.711186540325D+00 2.067536115646D-07
    9.380406391464D-01 2.486875000000D+02 1.099550739125D+00-8.489996499575D-09
    5.132356640398D-10 1.000000000000D+00 1.794000000000D+03 0.000000000000D+00
    2.000000000000D+00 0.000000000000D+00-6.519258022308D-09 2.100000000000D+01
    4.791900000000D+05 4.000000000000D+00
31 14  5 30 13 59 44.0 3.341627307236D-04-1.136868377216D-13 0.000000000000D+00
    9.000000000000D+00 8.890625000000D+01 4.371967824294D-09 1.502076060160D+00
    4.665926098824D-06 7.968242862262D-03 2.555549144745D-06 5.153557403564D+03
    4.823840000000D+05 8.754432201385D-08 1.469060766952D+00-1.676380634308D-08
    9.781353264854D-01 3.330625000000D+02-6.363893654972D-01-8.155696860368D-09
    7.786038605475D-11 1.000000000000D+00 1.794000000000D+03 0.000000000000D+00
    2.000000000000D+00 0.000000000000D+00-1.303851604462D-08 9.000000000000D+00
    4.823700000000D+05 4.000000000000D+00
 2 14  5 30 16  0  0.0 4.982822574675D-04 2.160049916711D-12 0.000000000000D+00
    7.200000000000D+01 2.759375000000D+01 5.046638784191D-09-2.374782728147D+00
    1.434236764908D-06 1.354943111073D-02 6.377696990967D-06 5.153607276917D+03
    4.896000000000D+05 4.470348358154D-08-1.727270598999D+00-1.396983861923D-07
    9.390350767287D-01 2.446250000000D+02-2.420443881683D+00-8.059978587603D-09
    5.821671067396D-10 1.000000000000D+00 1.794000000000D+03 0.000000000000D+00
    2.000000000000D+00 0.000000000000D+00-2.048909664154D-08 7.200000000000D+01
    4.824000000000D+05 4.000000000000D+00
 4 14  5 30 16  0  0.0 6.995163857937D-06 2.273736754432D-13 0.000000000000D+00
    2.200000000000D+01 2.671875000000D+01 5.223431862618D-09 9.808396885500D-01
    1.467764377594D-06 1.057624293026D-02 6.832182407379D-06 5.153732635498D+03
    4.896000000000D+05-1.676380634308D-07-1.711246558002D+00-3.166496753693D-08
    9.380435679084D-01 2.412187500000D+02 1.099601746689D+00-8.465352615916D-09
    3.200133298397D-10 1.000000000000D+00 1.794000000000D+03 0.000000000000D+00
    2.000000000000D+00 0.000000000000D+00-6.519258022308D-09 2.200000000000D+01
    4.824000000000D+05 4.000000000000D+00
12 14  5 30 16  0  0.0 2.082986757159D-04 2.501110429876D-12 0.000000000000D+00
    9.000000000000D+01-1.044687500000D+02 4.012667143693D-09 2.210757263417D+00
   -5.530193448067D-06 5.150149809197D-03 4.308298230171D-06 5.153618917465D+03
    4.896000000000D+05-1.881271600723D-07 2.526340978254D+00 9.313225746155D-09
    9.876558422759D-01 3.112812500000D+02 4.425035542435D-01-7.936044853837D-09
   -3.653723620826D-10 1.000000000000D+00 1.794000000000D+03 0.000000000000D+00
    2.000000000000D+00 0.000000000000D+00-1.210719347000D-08 9.000000000000D+01
    4.824000000000D+05 4.000000000000D+00
